#dP2024  6  9  0  0  0.00000000      97 __u+U IGS20 FIT  IAC
## 2318      0.00000000   900.00000000 60470 0.0000000000000
+  120   C06C07C08C09C10C11C12C13C14C16C19C20C21C22C23C24C25
+        C26C27C28C29C30C32C33C34C35C36C37C38C39C40C41C42C43
+        C44C45C46E02E03E04E05E07E08E09E10E11E12E13E14E15E18
+        E19E21E25E26E27E24E30E31E33E34E36G01G02G03G04G05G06
+        G07G08G09G10G11G12G13G14G15G16G17G18G19G20G21G22G23
+        G24G25G26G27G28G29G30G31G32J02J03J04R01R02R03R04R05
+        R07R08R09R11R12R13R14R15R16R17R18R19R20R21R22R24R25
+        R26  0  0  0  0  0  0  0  0  0  0  0  0  0  0  0  0
++         7  9  7  7  9  6  6  7  6  7  6  6  6  6  5  6  5
++         5  6  5  6  6  6  5  5  6  6  5  6  6  6  6  5  5
++         6  6  6  4  4  4  4  4  5  4  4  4  4  4  4  4  4
++         4  4  4  4  4  4  4  4  4  4  4  4  3  3  3  3  3
++         3  3  3  3  3  3  3  3  3  3  3  3  3  3  3  3  3
++         3  3  3  3  3  3  3  3  3 11 11 11  8  7  6  6  6
++         6  7  6  6  6  7  6  7  6  7  7  8  8  6  7  7  8
++         8  0  0  0  0  0  0  0  0  0  0  0  0  0  0  0  0
%c M  cc GPS ccc cccc cccc cccc cccc ccccc ccccc ccccc ccccc
%c cc cc ccc ccc cccc cccc cccc cccc ccccc ccccc ccccc ccccc
%f  1.2500000  1.025000000  0.00000000000  0.000000000000000
%f  0.0000000  0.000000000  0.00000000000  0.000000000000000
%i    0    0    0    0      0      0      0      0         0
%i    0    0    0    0      0      0      0      0         0
/* INFORMATION & ANALYSIS CENTER (IAC)            FINAL DATA
/* S/V CLOCKS ARE ALIGNED TO GNSS TIME                      
/* G:C1WC2W R:C1PC2P E:C1XC5X C:C2IC6I J:C1CC2S             
/* PCV:IGS20_2317 OL/AL:FES2004  NONE     YN ORB:CoN CLK:CoN
*  2024 06 09  7 45  0.00000000
PC06 -18258.020125  28467.585737 -25258.094957    489.636440
PC07  -6545.128510  40217.517079 -10285.883200   -654.050953
PC08   -761.612724  22641.200829  35583.670022   -195.227783
PC09 -10336.749285  27375.098321 -30098.135751    135.911306
PC10   -115.915675  41676.472134  -3298.442146    -20.983395
PC11   -407.476406 -18846.092614 -20519.421877    604.588231
PC12  15929.819265 -22067.280173  -6148.689640   -254.992166
PC13   5421.634696  26159.899644  32855.117349    437.830605
PC14  -8307.754712 -26678.740856    269.214156    912.110019
PC16 -20964.161953  27905.838646 -23599.043305   -576.985705
PC19  13391.974296  22604.459341  -9330.537994   -913.775983
PC20   2949.449098  26753.546819   7294.062588   -555.502629
PC21  10333.046806 -15032.314487 -21117.769103   -972.889518
PC22  16798.272414   5175.357041 -21670.939711     22.895715
PC23 -27395.517020  -4966.979492  -1872.411760   -785.452574
PC24   1416.514890 -16399.199835  22526.099100    906.715518
PC25 -18790.783637 -14605.584641  14549.382342    421.170245
PC26  20081.933354  -8613.382843  17360.767799   -303.208209
PC27 -20442.264123  18819.528186  -2648.577224    324.543428
PC28 -21663.057327   5926.648880 -16560.676678    249.300198
PC29   9540.996242  13287.051420  22599.631510    292.598747
PC30  -8085.702425  23257.935382  13135.760162    -98.390376
PC32 -10318.093707  14961.088256  21181.819607   -642.861911
PC33 -13531.670916 -22603.006339   9250.088334   -961.436056
PC34   6594.978950 -22959.568661 -14429.228077    451.844273
PC35  21369.545924  -6344.340175  16750.435705    342.464019
PC36  18531.382350  14999.512707 -14483.729287    105.390232
PC37 -20326.854285   8105.266585 -17289.136931   -945.482977
PC38  -8323.557705  21238.643067  35514.679180    160.216764
PC39 -23359.347034  28927.887983 -20028.023881     -8.649055
PC40 -11871.304313  38070.159661 -13245.235693    -74.251316
PC41 -16969.799451  -6130.145304  21347.214998   -969.515754
PC42  -1852.311750 -26422.056100  -8809.937886   -445.496918
PC43  -8832.553361 -14129.355487 -22397.606299     74.700145
PC44  19730.184627 -19520.426299   2745.097365    498.248463
PC45  27374.440954   5217.827257   1675.477886    -92.732220
PC46   -601.775904  16429.285626 -22551.347814   -155.274945
PE02 -14527.934252   8873.890424 -24216.921517    134.065141
PE03 -16551.418314  20005.253489  14196.692901   -119.217500
PE04   5691.121086 -28726.117545   4359.935355   -416.999544
PE05 -17412.727641   -255.681834  23941.823622   4755.371514
PE07   7863.061600  20773.875100 -19547.967744   -124.773414
PE08  -6324.645658  28691.682790  -3515.605122   -284.081133
PE09  -7685.086495 -20845.045290  19576.242658   -473.202710
PE10  -4181.934674 -15459.735472 -24904.662426   -631.323856
PE11 -15641.685249 -11368.785726 -22431.741109   2679.993470
PE12   6626.185202 -16952.007324 -23348.126941  -1074.337643
PE13  15038.308360  11573.405706  22711.653016    -22.129629
PE14  17686.211215 -19962.633790  12515.715824     66.173402
PE15  -7302.796149  16901.046356  23178.096953   -107.816669
PE18 -18971.324804   6876.638845 -18495.699742    205.587952
PE19  17141.222901 -18269.495092 -15759.768181     86.179531
PE21  23288.587926   9351.073120  15693.203939   -599.024164
PE25 -23342.843728  -9738.536141 -15372.102821      5.518594
PE26  28367.039839   -748.525537   8419.820047    478.626047
PE27  18719.994784  22810.027769  -2351.267523   -370.627424
PE24 -18499.860558 -22950.599398   2582.669628   -808.933882
PE30   2978.718446  22657.047523 -18825.584459   -386.441133
PE31  -3163.957852 -22655.208602  18794.365855    -25.882713
PE33  25303.450829 -12001.386317  -9595.422260     12.604731
PE34 -24989.354922  12272.933239  10034.933608   -115.984714
PE36 -28202.937440    411.094884  -8999.027364   -238.735429
PG01  19093.249546   1203.284517  18188.826643    261.913115
PG02   1255.553740 -15728.765221 -20839.902057   -421.049985
PG03 -10212.684043 -21559.517544 -11965.680665    404.944115
PG04   -254.451896 -24293.528227  10591.723246    379.332198
PG05  -3673.535272  15844.137857  20798.482754   -175.688607
PG06 -26041.061482   4931.398213  -2427.178479    228.498212
PG07 -18378.788540  -8400.794572  17985.823215    -98.287846
PG08   5873.948720 -25661.798242    -72.752595    221.000258
PG09  -9776.255202 -15855.367608  18831.701982    227.864894
PG10  20894.735888   6959.963832 -14871.785635    -39.079801
PG11 -21136.208510  12084.760817  10572.537568   -681.546692
PG12   6777.005267  22059.718089 -13473.072863   -512.565425
PG13 -13761.678337  21672.178961   6098.192843    656.650072
PG14 -21555.353837 -10194.898873 -11885.378367    421.088440
PG15  -2433.373315  26341.111694   -586.388768    168.167659
PG16   8482.415960 -12901.278638  21225.693460   -269.235847
PG17 -14999.772163  -1611.202798 -21456.679196    697.067324
PG18  18780.753995   7470.943463  17346.884205   -622.540997
PG19 -16929.479930   7521.444412 -19056.098919    493.875552
PG20 -12602.760978   9651.296874  21338.797511    374.028832
PG21   6494.684071 -16513.799342 -18976.508863    116.579188
PG22 -18967.944727  -3415.250072 -17728.432884    -24.932667
PG23  21064.578189  15696.238713  -4573.846077    245.957083
PG24  -2738.552332  17162.744225 -20406.217829   -476.442663
PG25  15725.744190  20885.164119  -5755.341194    497.078194
PG26  18595.322845  -2520.055286  18776.575312    139.901181
PG27  12652.457122 -20629.523850  10149.910484    -27.550711
PG28  25750.038247  -4129.535790  -5040.442346   -280.844769
PG29   6153.110700  18812.086617  17598.713581   -595.018842
PG30 -24974.992258   -622.063280   9549.206514   -377.173640
PG31  24110.664324 -10034.979508   5662.819500   -227.493760
PG32  15591.429241  -1227.142208 -21228.407235   -616.739815
PJ02 -21586.949465  20769.833501 -24990.684649     -0.299692
PJ03 -29535.141386  28948.617927  13778.278770      0.514679
PJ04 -26465.824964  27679.626093  23415.336038     50.334169
PR01 -11405.792233  -6942.155039  21740.985814     87.863927
PR02  -8661.084293  11566.556006  21083.857082    -23.208345
PR03  -1216.188787  24102.158813   8395.771061    101.740572
PR04   6367.150684  23173.411312  -8535.508006    240.272920
PR05  10703.479736   9927.452534 -20909.742545    132.817257
PR07    811.136237 -24321.766828  -7527.099564     84.191049
PR08  -6766.627053 -22935.531344   8900.533559     -4.761065
PR09  17791.119714  -2598.522797  18076.811814    191.227628
PR11 -14172.407781 -14120.945970  15850.424903     21.993099
PR12 -23782.200716  -8843.564924  -2543.043914     41.104645
PR13 -19520.203286    464.184751 -16422.020939    -48.183766
PR14  -1781.039605  11265.491629 -22797.812307     26.556678
PR15  15387.958222  14206.453772 -14531.200119     78.990631
PR16  23793.073755   8825.186011   2388.839673     26.325039
PR17 -12211.413714  17103.272852  14427.833380     94.242160
PR18   2413.560738  11000.341695  22900.307207    146.146216
PR19  14983.422616   1077.187407  20610.404930   -279.661343
PR20  21852.532680 -12650.890847   3477.290507   -114.163196
PR21  12633.557820 -17010.009352 -14230.360164   -107.760114
PR22  -3516.006519 -10692.550161 -22867.548896    104.746627
PR24 -21233.413185  13821.119904  -2872.639455    -59.133663
PR25  12587.691285 -16762.483132 -14548.971708    -40.116707
PR26  -6368.456661 -23526.358539   7592.850297     -6.690058
EOF
